{"type": "FeatureCollection", "features": [ {"type": "Feature", "properties": {"norad_id": 45358, "name": "COSMOS 2545 (760)", "group": "glo-ops", "lat": 32.61630988177664, "lon": -23.260997561391967, "alt_km": 19151.697153094654, "timestamp": "2025-12-13T10:41:26.027085+00:00", "meta": {"OBJECT_NAME": "COSMOS 2545 (760)", "OBJECT_ID": "2020-018A", "EPOCH": "2025-12-10T13:58:04.872576", "MEAN_MOTION": 2.13102273, "ECCENTRICITY": 0.00118432, "INCLINATION": 64.471, "RA_OF_ASC_NODE": 319.0455, "ARG_OF_PERICENTER": 248.8319, "MEAN_ANOMALY": 111.0396, "EPHEMERIS_TYPE": 0, "CLASSIFICATION_TYPE": "U", "NORAD_CAT_ID": 45358, "ELEMENT_SET_NO": 999, "REV_AT_EPOCH": 4464, "BSTAR": 0, "MEAN_MOTION_DOT": -5.2e-07, "MEAN_MOTION_DDOT": 0}, "tle": {"line1": "1 45358U 20018A   25344.58200084 -.00000052  00000+0  00000+0 0  9997", "line2": "2 45358  64.4710 319.0455 0011843 248.8319 111.0396  2.13102273 44648"}}, "geometry": {"type": "Point", "coordinates": [-23.260997561391967, 32.61630988177664]}}, {"type": "Feature", "properties": {"norad_id": 46805, "name": "COSMOS 2547 (705K)", "group": "glo-ops", "lat": -59.446514092252, "lon": 72.28561491163116, "alt_km": 19121.37039769037, "timestamp": "2025-12-13T10:41:26.027109+00:00", "meta": {"OBJECT_NAME": "COSMOS 2547 (705K)", "OBJECT_ID": "2020-075A", "EPOCH": "2025-12-08T21:25:56.196192", "MEAN_MOTION": 2.13099854, "ECCENTRICITY": 0.00063847, "INCLINATION": 64.5958, "RA_OF_ASC_NODE": 198.8249, "ARG_OF_PERICENTER": 229.7163, "MEAN_ANOMALY": 130.3027, "EPHEMERIS_TYPE": 0, "CLASSIFICATION_TYPE": "U", "NORAD_CAT_ID": 46805, "ELEMENT_SET_NO": 999, "REV_AT_EPOCH": 3985, "BSTAR": 0, "MEAN_MOTION_DOT": 4.5e-07, "MEAN_MOTION_DDOT": 0}, "tle": {"line1": "1 46805U 20075A   25342.89301153  .00000045  00000+0  00000+0 0  9990", "line2": "2 46805  64.5958 198.8249 0006384 229.7163 130.3027  2.13099854 39856"}}, "geometry": {"type": "Point", "coordinates": [72.28561491163116, -59.446514092252]}}, {"type": "Feature", "properties": {"norad_id": 52984, "name": "COSMOS 2557 (706K)", "group": "glo-ops", "lat": 47.26627465030814, "lon": 109.77703176984814, "alt_km": 19155.222898766937, "timestamp": "2025-12-13T10:41:26.027123+00:00", "meta": {"OBJECT_NAME": "COSMOS 2557 (706K)", "OBJECT_ID": "2022-075A", "EPOCH": "2025-12-07T04:21:00.419904", "MEAN_MOTION": 2.13101754, "ECCENTRICITY": 0.00137049, "INCLINATION": 64.4129, "RA_OF_ASC_NODE": 321.247, "ARG_OF_PERICENTER": 276.9, "MEAN_ANOMALY": 82.939, "EPHEMERIS_TYPE": 0, "CLASSIFICATION_TYPE": "U", "NORAD_CAT_ID": 52984, "ELEMENT_SET_NO": 999, "REV_AT_EPOCH": 2662, "BSTAR": 0, "MEAN_MOTION_DOT": -5.2e-07, "MEAN_MOTION_DDOT": 0}, "tle": {"line1": "1 52984U 22075A   25341.18125486 -.00000052  00000+0  00000+0 0  9990", "line2": "2 52984  64.4129 321.2470 0013704 276.9000  82.9390  2.13101754 26625"}}, "geometry": {"type": "Point", "coordinates": [109.77703176984814, 47.26627465030814]}}, {"type": "Feature", "properties": {"norad_id": 54031, "name": "COSMOS 2559 (707K)", "group": "glo-ops", "lat": -63.827908399425986, "lon": -141.4379814049427, "alt_km": 19127.235199738912, "timestamp": "2025-12-13T10:41:26.027135+00:00", "meta": {"OBJECT_NAME": "COSMOS 2559 (707K)", "OBJECT_ID": "2022-130A", "EPOCH": "2025-12-12T15:09:27.731808", "MEAN_MOTION": 2.13101353, "ECCENTRICITY": 0.00118034, "INCLINATION": 64.3823, "RA_OF_ASC_NODE": 321.1449, "ARG_OF_PERICENTER": 192.421, "MEAN_ANOMALY": 167.5503, "EPHEMERIS_TYPE": 0, "CLASSIFICATION_TYPE": "U", "NORAD_CAT_ID": 54031, "ELEMENT_SET_NO": 999, "REV_AT_EPOCH": 2471, "BSTAR": 0, "MEAN_MOTION_DOT": -6e-07, "MEAN_MOTION_DDOT": 0}, "tle": {"line1": "1 54031U 22130A   25346.63157097 -.00000060  00000+0  00000+0 0  9994", "line2": "2 54031  64.3823 321.1449 0011803 192.4210 167.5503  2.13101353 24717"}}, "geometry": {"type": "Point", "coordinates": [-141.4379814049427, -63.827908399425986]}}, {"type": "Feature", "properties": {"norad_id": 54377, "name": "COSMOS 2564 (761)", "group": "glo-ops", "lat": 21.450834850079282, "lon": -150.43057829220083, "alt_km": 19149.548219449145, "timestamp": "2025-12-13T10:41:26.027147+00:00", "meta": {"OBJECT_NAME": "COSMOS 2564 (761)", "OBJECT_ID": "2022-161A", "EPOCH": "2025-12-12T22:40:51.150144", "MEAN_MOTION": 2.13102083, "ECCENTRICITY": 0.00086043, "INCLINATION": 64.7382, "RA_OF_ASC_NODE": 198.8921, "ARG_OF_PERICENTER": 204.7293, "MEAN_ANOMALY": 155.3019, "EPHEMERIS_TYPE": 0, "CLASSIFICATION_TYPE": "U", "NORAD_CAT_ID": 54377, "ELEMENT_SET_NO": 999, "REV_AT_EPOCH": 2366, "BSTAR": 0, "MEAN_MOTION_DOT": 7.5e-07, "MEAN_MOTION_DDOT": 0}, "tle": {"line1": "1 54377U 22161A   25346.94503646  .00000075  00000+0  00000+0 0  9995", "line2": "2 54377  64.7382 198.8921 0008604 204.7293 155.3019  2.13102083 23662"}}, "geometry": {"type": "Point", "coordinates": [-150.43057829220083, 21.450834850079282]}}, {"type": "Feature", "properties": {"norad_id": 57517, "name": "COSMOS 2569 (703K)", "group": "glo-ops", "lat": 12.365421082045506, "lon": 84.70452790256928, "alt_km": 19127.073495996836, "timestamp": "2025-12-13T10:41:26.027158+00:00", "meta": {"OBJECT_NAME": "COSMOS 2569 (703K)", "OBJECT_ID": "2023-114A", "EPOCH": "2025-12-11T01:57:11.687328", "MEAN_MOTION": 2.13103934, "ECCENTRICITY": 0.0010485, "INCLINATION": 65.1933, "RA_OF_ASC_NODE": 78.9695, "ARG_OF_PERICENTER": 287.0346, "MEAN_ANOMALY": 72.8683, "EPHEMERIS_TYPE": 0, "CLASSIFICATION_TYPE": "U", "NORAD_CAT_ID": 57517, "ELEMENT_SET_NO": 999, "REV_AT_EPOCH": 1825, "BSTAR": 0, "MEAN_MOTION_DOT": -2.7e-07, "MEAN_MOTION_DDOT": 0}, "tle": {"line1": "1 57517U 23114A   25345.08138527 -.00000027  00000+0  00000+0 0  9997", "line2": "2 57517  65.1933  78.9695 0010485 287.0346  72.8683  2.13103934 18252"}}, "geometry": {"type": "Point", "coordinates": [84.70452790256928, 12.365421082045506]}}, {"type": "Feature", "properties": {"norad_id": 63130, "name": "COSMOS 2584 (704K)", "group": "glo-ops", "lat": 62.99535024786564, "lon": -167.11200266099303, "alt_km": 19131.724507385516, "timestamp": "2025-12-13T10:41:26.027169+00:00", "meta": {"OBJECT_NAME": "COSMOS 2584 (704K)", "OBJECT_ID": "2025-042A", "EPOCH": "2025-12-11T21:45:20.522592", "MEAN_MOTION": 2.13103011, "ECCENTRICITY": 0.00076483, "INCLINATION": 64.9756, "RA_OF_ASC_NODE": 79.1743, "ARG_OF_PERICENTER": 217.1196, "MEAN_ANOMALY": 142.8438, "EPHEMERIS_TYPE": 0, "CLASSIFICATION_TYPE": "U", "NORAD_CAT_ID": 63130, "ELEMENT_SET_NO": 999, "REV_AT_EPOCH": 605, "BSTAR": 0, "MEAN_MOTION_DOT": -3.5e-07, "MEAN_MOTION_DDOT": 0}, "tle": {"line1": "1 63130U 25042A   25345.90648753 -.00000035  00000+0  00000+0 0  9994", "line2": "2 63130  64.9756  79.1743 0007648 217.1196 142.8438  2.13103011  6058"}}, "geometry": {"type": "Point", "coordinates": [-167.11200266099303, 62.99535024786564]}}, {"type": "Feature", "properties": {"norad_id": 65590, "name": "COSMOS 2596 (708K)", "group": "glo-ops", "lat": -34.66506267207584, "lon": 160.48927806229295, "alt_km": 19132.54869863691, "timestamp": "2025-12-13T10:41:26.027181+00:00", "meta": {"OBJECT_NAME": "COSMOS 2596 (708K)", "OBJECT_ID": "2025-206B", "EPOCH": "2025-12-10T13:06:28.122048", "MEAN_MOTION": 2.13100337, "ECCENTRICITY": 0.00140136, "INCLINATION": 64.7453, "RA_OF_ASC_NODE": 321.5499, "ARG_OF_PERICENTER": 305.8933, "MEAN_ANOMALY": 208.9804, "EPHEMERIS_TYPE": 0, "CLASSIFICATION_TYPE": "U", "NORAD_CAT_ID": 65590, "ELEMENT_SET_NO": 999, "REV_AT_EPOCH": 189, "BSTAR": 0, "MEAN_MOTION_DOT": -5.2e-07, "MEAN_MOTION_DDOT": 0}, "tle": {"line1": "1 65590U 25206B   25344.54615882 -.00000052  00000+0  00000+0 0  9993", "line2": "2 65590  64.7453 321.5499 0014013 305.8933 208.9804  2.13100337  1898"}}, "geometry": {"type": "Point", "coordinates": [160.48927806229295, -34.66506267207584]}}]}